{"type": "FeatureCollection", "features": [{"type": "Feature", "properties": {"norad_id": 26766, "name": "INTELSAT 10 (IS-10)", "group": "intelsat", "lat": -0.16598432060816806, "lon": 59.875233049850124, "alt_km": 36146.21441300111, "timestamp": "2025-12-19T14:48:35.911832+00:00", "meta": {"OBJECT_NAME": "INTELSAT 10 (IS-10)", "OBJECT_ID": "2001-019A", "EPOCH": "2025-12-18T15:52:21.542016", "MEAN_MOTION": 0.99076062, "ECCENTRICITY": 0.00076782, "INCLINATION": 8.6429, "RA_OF_ASC_NODE": 61.0978, "ARG_OF_PERICENTER": 228.2333, "MEAN_ANOMALY": 149.5829, "EPHEMERIS_TYPE": 0, "CLASSIFICATION_TYPE": "U", "NORAD_CAT_ID": 26766, "ELEMENT_SET_NO": 999, "REV_AT_EPOCH": 4379, "BSTAR": 0, "MEAN_MOTION_DOT": -1.61e-06, "MEAN_MOTION_DDOT": 0}, "tle": {"line1": "1 26766U 01019A   25352.66136044 -.00000161  00000+0  00000+0 0  9992", "line2": "2 26766   8.6429  61.0978 0007678 228.2333 149.5829  0.99076062 43790"}}, "geometry": {"type": "Point", "coordinates": [59.875233049850124, -0.16598432060816806]}}, {"type": "Feature", "properties": {"norad_id": 26900, "name": "INTELSAT 902 (IS-902)", "group": "intelsat", "lat": -0.66505559171621, "lon": -99.55382086141711, "alt_km": 35767.8225526806, "timestamp": "2025-12-19T14:48:35.911856+00:00", "meta": {"OBJECT_NAME": "INTELSAT 902 (IS-902)", "OBJECT_ID": "2001-039A", "EPOCH": "2025-12-15T13:09:02.081664", "MEAN_MOTION": 1.0027087, "ECCENTRICITY": 0.00045028, "INCLINATION": 5.6536, "RA_OF_ASC_NODE": 74.0372, "ARG_OF_PERICENTER": 189.6359, "MEAN_ANOMALY": 327.9329, "EPHEMERIS_TYPE": 0, "CLASSIFICATION_TYPE": "U", "NORAD_CAT_ID": 26900, "ELEMENT_SET_NO": 999, "REV_AT_EPOCH": 8885, "BSTAR": 0, "MEAN_MOTION_DOT": -2.65e-06, "MEAN_MOTION_DDOT": 0}, "tle": {"line1": "1 26900U 01039A   25349.54794076 -.00000265  00000+0  00000+0 0  9997", "line2": "2 26900   5.6536  74.0372 0004502 189.6359 327.9329  1.00270870 88858"}}, "geometry": {"type": "Point", "coordinates": [-99.55382086141711, -0.66505559171621]}}, {"type": "Feature", "properties": {"norad_id": 27380, "name": "INTELSAT 904 (IS-904)", "group": "intelsat", "lat": -3.033449069904141, "lon": -81.0529435060088, "alt_km": 35780.92665361802, "timestamp": "2025-12-19T14:48:35.911872+00:00", "meta": {"OBJECT_NAME": "INTELSAT 904 (IS-904)", "OBJECT_ID": "2002-007A", "EPOCH": "2025-12-19T06:28:21.732672", "MEAN_MOTION": 1.00271349, "ECCENTRICITY": 0.00017442, "INCLINATION": 6.47, "RA_OF_ASC_NODE": 71.3577, "ARG_OF_PERICENTER": 246.9588, "MEAN_ANOMALY": 195.3942, "EPHEMERIS_TYPE": 0, "CLASSIFICATION_TYPE": "U", "NORAD_CAT_ID": 27380, "ELEMENT_SET_NO": 999, "REV_AT_EPOCH": 4996, "BSTAR": 0, "MEAN_MOTION_DOT": -2.07e-06, "MEAN_MOTION_DDOT": 0}, "tle": {"line1": "1 27380U 02007A   25353.26969598 -.00000207  00000+0  00000+0 0  9999", "line2": "2 27380   6.4700  71.3577 0001744 246.9588 195.3942  1.00271349 49965"}}, "geometry": {"type": "Point", "coordinates": [-81.0529435060088, -3.033449069904141]}}, {"type": "Feature", "properties": {"norad_id": 27426, "name": "DIRECTV 5 (TEMPO 1)", "group": "intelsat", "lat": 3.70054748815401, "lon": -159.4607210876941, "alt_km": 35784.01967466439, "timestamp": "2025-12-19T14:48:35.911886+00:00", "meta": {"OBJECT_NAME": "DIRECTV 5 (TEMPO 1)", "OBJECT_ID": "2002-023A", "EPOCH": "2025-12-19T05:54:43.346592", "MEAN_MOTION": 1.0027278, "ECCENTRICITY": 0.00034269, "INCLINATION": 4.4178, "RA_OF_ASC_NODE": 77.5774, "ARG_OF_PERICENTER": 207.9446, "MEAN_ANOMALY": 141.1455, "EPHEMERIS_TYPE": 0, "CLASSIFICATION_TYPE": "U", "NORAD_CAT_ID": 27426, "ELEMENT_SET_NO": 999, "REV_AT_EPOCH": 8631, "BSTAR": 0, "MEAN_MOTION_DOT": -3.6e-07, "MEAN_MOTION_DDOT": 0}, "tle": {"line1": "1 27426U 02023A   25353.24633503 -.00000036  00000+0  00000+0 0  9990", "line2": "2 27426   4.4178  77.5774 0003426 207.9446 141.1455  1.00272780 86317"}}, "geometry": {"type": "Point", "coordinates": [-159.4607210876941, 3.70054748815401]}}, {"type": "Feature", "properties": {"norad_id": 27438, "name": "INTELSAT 905 (IS-905)", "group": "intelsat", "lat": 6.182806699112756, "lon": 173.43936843275029, "alt_km": 35786.78727146328, "timestamp": "2025-12-19T14:48:35.911898+00:00", "meta": {"OBJECT_NAME": "INTELSAT 905 (IS-905)", "OBJECT_ID": "2002-027A", "EPOCH": "2025-12-18T20:04:07.110624", "MEAN_MOTION": 1.00272079, "ECCENTRICITY": 0.00026396, "INCLINATION": 6.3, "RA_OF_ASC_NODE": 71.9858, "ARG_OF_PERICENTER": 200.0074, "MEAN_ANOMALY": 339.5183, "EPHEMERIS_TYPE": 0, "CLASSIFICATION_TYPE": "U", "NORAD_CAT_ID": 27438, "ELEMENT_SET_NO": 999, "REV_AT_EPOCH": 4955, "BSTAR": 0, "MEAN_MOTION_DOT": 1.13e-06, "MEAN_MOTION_DDOT": 0}, "tle": {"line1": "1 27438U 02027A   25352.83619341  .00000113  00000+0  00000+0 0  9990", "line2": "2 27438   6.3000  71.9858 0002639 200.0074 339.5183  1.00272079 49559"}}, "geometry": {"type": "Point", "coordinates": [173.43936843275029, 6.182806699112756]}}, {"type": "Feature", "properties": {"norad_id": 27445, "name": "GALAXY 3C (G-3C)", "group": "intelsat", "lat": 2.2891819131884366, "lon": -144.19436812039496, "alt_km": 35783.1540837306, "timestamp": "2025-12-19T14:48:35.911911+00:00", "meta": {"OBJECT_NAME": "GALAXY 3C (G-3C)", "OBJECT_ID": "2002-030A", "EPOCH": "2025-12-19T06:03:44.417088", "MEAN_MOTION": 1.00271938, "ECCENTRICITY": 0.0001141, "INCLINATION": 3.2793, "RA_OF_ASC_NODE": 80.4404, "ARG_OF_PERICENTER": 78.4282, "MEAN_ANOMALY": 285.3097, "EPHEMERIS_TYPE": 0, "CLASSIFICATION_TYPE": "U", "NORAD_CAT_ID": 27445, "ELEMENT_SET_NO": 999, "REV_AT_EPOCH": 4469, "BSTAR": 0, "MEAN_MOTION_DOT": -1.31e-06, "MEAN_MOTION_DDOT": 0}, "tle": {"line1": "1 27445U 02030A   25353.25259742 -.00000131  00000+0  00000+0 0  9995", "line2": "2 27445   3.2793  80.4404 0001141  78.4282 285.3097  1.00271938 44694"}}, "geometry": {"type": "Point", "coordinates": [-144.19436812039496, 2.2891819131884366]}}, {"type": "Feature", "properties": {"norad_id": 27513, "name": "INTELSAT 906 (IS-906)", "group": "intelsat", "lat": -4.639402062194093, "lon": 14.916731279253195, "alt_km": 35791.93271562954, "timestamp": "2025-12-19T14:48:35.911923+00:00", "meta": {"OBJECT_NAME": "INTELSAT 906 (IS-906)", "OBJECT_ID": "2002-041A", "EPOCH": "2025-12-19T05:00:36.705888", "MEAN_MOTION": 1.00272586, "ECCENTRICITY": 0.00063202, "INCLINATION": 5.3458, "RA_OF_ASC_NODE": 75.1553, "ARG_OF_PERICENTER": 197.8697, "MEAN_ANOMALY": 314.3156, "EPHEMERIS_TYPE": 0, "CLASSIFICATION_TYPE": "U", "NORAD_CAT_ID": 27513, "ELEMENT_SET_NO": 999, "REV_AT_EPOCH": 8522, "BSTAR": 0, "MEAN_MOTION_DOT": 3.3e-07, "MEAN_MOTION_DDOT": 0}, "tle": {"line1": "1 27513U 02041A   25353.20875817  .00000033  00000+0  00000+0 0  9995", "line2": "2 27513   5.3458  75.1553 0006320 197.8697 314.3156  1.00272586 85220"}}, "geometry": {"type": "Point", "coordinates": [14.916731279253195, -4.639402062194093]}}, {"type": "Feature", "properties": {"norad_id": 27954, "name": "GALAXY 13 (HORIZONS-1)", "group": "intelsat", "lat": 0.9238994781812672, "lon": 160.56403815527392, "alt_km": 35788.629512277534, "timestamp": "2025-12-19T14:48:35.911935+00:00", "meta": {"OBJECT_NAME": "GALAXY 13 (HORIZONS-1)", "OBJECT_ID": "2003-044A", "EPOCH": "2025-12-19T05:25:38.491680", "MEAN_MOTION": 1.0026926, "ECCENTRICITY": 0.00024327, "INCLINATION": 0.9531, "RA_OF_ASC_NODE": 86.3872, "ARG_OF_PERICENTER": 175.357, "MEAN_ANOMALY": 117.7371, "EPHEMERIS_TYPE": 0, "CLASSIFICATION_TYPE": "U", "NORAD_CAT_ID": 27954, "ELEMENT_SET_NO": 999, "REV_AT_EPOCH": 4476, "BSTAR": 0, "MEAN_MOTION_DOT": 1.57e-06, "MEAN_MOTION_DDOT": 0}, "tle": {"line1": "1 27954U 03044A   25353.22613995  .00000157  00000+0  00000+0 0  9994", "line2": "2 27954   0.9531  86.3872 0002432 175.3570 117.7371  1.00269260 44764"}}, "geometry": {"type": "Point", "coordinates": [160.56403815527392, 0.9238994781812672]}}, {"type": "Feature", "properties": {"norad_id": 28358, "name": "INTELSAT 10-02", "group": "intelsat", "lat": -0.027903355375606596, "lon": -50.352541327182166, "alt_km": 35782.010476560514, "timestamp": "2025-12-19T14:48:35.911948+00:00", "meta": {"OBJECT_NAME": "INTELSAT 10-02", "OBJECT_ID": "2004-022A", "EPOCH": "2025-12-18T20:08:22.788096", "MEAN_MOTION": 1.00272833, "ECCENTRICITY": 8.965e-05, "INCLINATION": 0.0192, "RA_OF_ASC_NODE": 66.3622, "ARG_OF_PERICENTER": 235.9772, "MEAN_ANOMALY": 86.4926, "EPHEMERIS_TYPE": 0, "CLASSIFICATION_TYPE": "U", "NORAD_CAT_ID": 28358, "ELEMENT_SET_NO": 999, "REV_AT_EPOCH": 7874, "BSTAR": 0, "MEAN_MOTION_DOT": 1.5e-07, "MEAN_MOTION_DDOT": 0}, "tle": {"line1": "1 28358U 04022A   25352.83915264  .00000015  00000+0  00000+0 0  9993", "line2": "2 28358   0.0192  66.3622 0000896 235.9772  86.4926  1.00272833 78740"}}, "geometry": {"type": "Point", "coordinates": [-50.352541327182166, -0.027903355375606596]}}, {"type": "Feature", "properties": {"norad_id": 28626, "name": "XM-3 (RHYTHM)", "group": "intelsat", "lat": -0.1267682760831059, "lon": 32.23611107422904, "alt_km": 36154.01872999092, "timestamp": "2025-12-19T14:48:35.911960+00:00", "meta": {"OBJECT_NAME": "XM-3 (RHYTHM)", "OBJECT_ID": "2005-008A", "EPOCH": "2025-12-19T03:23:23.518752", "MEAN_MOTION": 0.98950167, "ECCENTRICITY": 0.00018735, "INCLINATION": 0.1906, "RA_OF_ASC_NODE": 81.929, "ARG_OF_PERICENTER": 278.2541, "MEAN_ANOMALY": 222.5456, "EPHEMERIS_TYPE": 0, "CLASSIFICATION_TYPE": "U", "NORAD_CAT_ID": 28626, "ELEMENT_SET_NO": 999, "REV_AT_EPOCH": 4081, "BSTAR": 0, "MEAN_MOTION_DOT": 4.8e-07, "MEAN_MOTION_DDOT": 0}, "tle": {"line1": "1 28626U 05008A   25353.14124443  .00000048  00000+0  00000+0 0  9998", "line2": "2 28626   0.1906  81.9290 0001873 278.2541 222.5456  0.98950167 40813"}}, "geometry": {"type": "Point", "coordinates": [32.23611107422904, -0.1267682760831059]}}]}